GPS BIIR-08             
1 27663U 03005A   26065.41226067  .00000020  00000+0  00000+0 0  9999
2 27663  54.9069 219.0498 0148732  52.7313 318.1949  2.00566200169257
GPS BIIR-11             
1 28190U 04009A   26066.58340325 -.00000016  00000+0  00000+0 0  9999
2 28190  54.9132 279.7911 0111094 169.1473 123.2267  2.00558069160903
GPS BIIR-13             
1 28474U 04045A   26065.38499287 -.00000095  00000+0  00000+0 0  9990
2 28474  55.1936 329.0394 0170811 312.9081 257.6882  2.00573556156360
GPS BIIR-14M            
1 28874U 05038A   26065.65681979 -.00000017  00000+0  00000+0 0  9992
2 28874  54.9613 277.3140 0128744 295.3788  71.8812  2.00572910149783
METEOSAT-9 (MSG-2)      
1 28912U 05049B   26066.08982206  .00000123  00000+0  00000+0 0  9999
2 28912   9.1309  55.1553 0001569 224.3730 323.3977  1.00278827  5972
GPS BIIR-16M            
1 29601U 06052A   26065.70683819  .00000023  00000+0  00000+0 0  9995
2 29601  54.9563 218.0660 0087831  89.3999 271.5620  2.00551839141359
GPS BIIR-17M            
1 32260U 07047A   26065.01635843 -.00000015  00000+0  00000+0 0  9995
2 32260  54.0170  84.3168 0163613  85.9747 275.9459  2.00560687134746
GPS BIIR-18M            
1 32384U 07062A   26065.07949970 -.00000020  00000+0  00000+0 0  9990
2 32384  55.1135 278.2961 0032970 160.6738  12.9295  2.00553677133447
GOES 14                 
1 35491U 09033A   26066.47683577  .00000121  00000+0  00000+0 0  9996
2 35491   1.4269  84.3767 0001754 259.2285 193.1965  1.00100837  5572
GOES 15                 
1 36411U 10008A   26066.57594853  .00000020  00000+0  00000+0 0  9990
2 36411   1.0163  85.0841 0002165  16.8873 334.1046  1.00270074 58613
GSAT0101 (GALILEO-PFM)  
1 37846U 11060A   26053.46432651 -.00000082  00000+0  00000+0 0  9992
2 37846  57.0318 344.8758 0003975 357.0591   2.9533  1.70475478 89166
GSAT0102 (GALILEO-FM2)  
1 37847U 11060B   26060.06318653 -.00000106  00000+0  00000+0 0  9999
2 37847  57.0301 344.6971 0005422 341.2092 154.1953  1.70475778 89286
LUCH 5A                 
1 37951U 11074B   26066.75570944 -.00000047  00000+0  00000+0 0  9999
2 37951   8.4953  75.2960 0003819 249.7918 279.5660  1.00276314 52035
METEOSAT-10 (MSG-3)     
1 38552U 12035B   26066.26572604 -.00000007  00000+0  00000+0 0  9992
2 38552   4.4303  61.4505 0002485 283.9683 275.4508  1.00268083 49831
SARSAT 13 (METOP-B)     
1 38771U 12049A   26066.61486086  .00000140  00000+0  83720-4 0  9999
2 38771  98.6646 120.0793 0001178 277.3045  82.7999 14.21443914698835
GPS BIIF-3              
1 38833U 12053A   26065.11266852  .00000008  00000+0  00000+0 0  9992
2 38833  53.5660 147.8234 0176954  64.7855 297.0886  2.00565873 97370
GSAT0103 (GALILEO-FM3)  
1 38857U 12055A   26064.64990116  .00000009  00000+0  00000+0 0  9995
2 38857  55.7393 104.3859 0005425 285.5287  74.4915  1.70473457 83254
